[{"OBJECT_NAME":"STARLINK-2373","OBJECT_ID":"2021-018K","EPOCH":"2026-03-09T15:48:06.896160","MEAN_MOTION":15.06397252,"ECCENTRICITY":0.00012699,"INCLINATION":53.0552,"RA_OF_ASC_NODE":231.7586,"ARG_OF_PERICENTER":89.3251,"MEAN_ANOMALY":270.7884,"EPHEMERIS_TYPE":0,"CLASSIFICATION_TYPE":"U","NORAD_CAT_ID":47796,"ELEMENT_SET_NO":999,"REV_AT_EPOCH":27687,"BSTAR":3.9566922e-5,"MEAN_MOTION_DOT":3.08e-6,"MEAN_MOTION_DDOT":0},{"OBJECT_NAME":"TYVAK-182A","OBJECT_ID":"2021-034D","EPOCH":"2026-03-09T17:04:17.866560","MEAN_MOTION":15.0515042,"ECCENTRICITY":0.00048625,"INCLINATION":97.5843,"RA_OF_ASC_NODE":129.3711,"ARG_OF_PERICENTER":316.565,"MEAN_ANOMALY":43.5193,"EPHEMERIS_TYPE":0,"CLASSIFICATION_TYPE":"U","NORAD_CAT_ID":48271,"ELEMENT_SET_NO":999,"REV_AT_EPOCH":26486,"BSTAR":0.00050672592,"MEAN_MOTION_DOT":7.163e-5,"MEAN_MOTION_DDOT":0}]
