STARLINK-2373           
1 47796U 21018K   26068.65841315  .00000308  00000+0  39567-4 0  9994
2 47796  53.0552 231.7586 0001270  89.3251 270.7884 15.06397252276871
TYVAK-182A              
1 48271U 21034D   26068.71131789  .00007163  00000+0  50673-3 0  9991
2 48271  97.5843 129.3711 0004862 316.5650  43.5193 15.05150420264864
